[{"OBJECT_NAME":"CORVUS BC4","OBJECT_ID":"2018-099K","EPOCH":"2026-03-09T15:49:18.108768","MEAN_MOTION":15.1161571,"ECCENTRICITY":0.00080458,"INCLINATION":97.4206,"RA_OF_ASC_NODE":114.5457,"ARG_OF_PERICENTER":356.5821,"MEAN_ANOMALY":3.5354,"EPHEMERIS_TYPE":0,"CLASSIFICATION_TYPE":"U","NORAD_CAT_ID":43767,"ELEMENT_SET_NO":999,"REV_AT_EPOCH":39736,"BSTAR":0.00033979895,"MEAN_MOTION_DOT":5.714e-5,"MEAN_MOTION_DDOT":0},{"OBJECT_NAME":"STARLINK-3893","OBJECT_ID":"2022-051AV","EPOCH":"2026-03-09T10:58:52.127328","MEAN_MOTION":15.08831701,"ECCENTRICITY":0.00013143,"INCLINATION":53.216,"RA_OF_ASC_NODE":135.1615,"ARG_OF_PERICENTER":83.0983,"MEAN_ANOMALY":277.0158,"EPHEMERIS_TYPE":0,"CLASSIFICATION_TYPE":"U","NORAD_CAT_ID":52579,"ELEMENT_SET_NO":999,"REV_AT_EPOCH":21134,"BSTAR":-7.6535994e-5,"MEAN_MOTION_DOT":-1.505e-5,"MEAN_MOTION_DDOT":0}]
