CORVUS BC4              
1 43767U 18099K   26068.65923737  .00005714  00000+0  33980-3 0  9990
2 43767  97.4206 114.5457 0008046 356.5821   3.5354 15.11615710397368
STARLINK-3893           
1 52579U 22051AV  26068.45754777 -.00001505  00000+0 -76536-4 0  9999
2 52579  53.2160 135.1615 0001314  83.0983 277.0158 15.08831701211344
